[{"OBJECT_NAME":"VIZARD-METEO (RS38S)","OBJECT_ID":"2023-091Z","EPOCH":"2026-03-09T23:01:09.168960","MEAN_MOTION":15.32764799,"ECCENTRICITY":0.00087615,"INCLINATION":97.5192,"RA_OF_ASC_NODE":136.6522,"ARG_OF_PERICENTER":71.7666,"MEAN_ANOMALY":288.4529,"EPHEMERIS_TYPE":0,"CLASSIFICATION_TYPE":"U","NORAD_CAT_ID":57189,"ELEMENT_SET_NO":999,"REV_AT_EPOCH":14947,"BSTAR":0.00066106249,"MEAN_MOTION_DOT":0.00020895,"MEAN_MOTION_DDOT":0},{"OBJECT_NAME":"STARLINK-33638","OBJECT_ID":"2025-069D","EPOCH":"2026-03-09T10:27:55.697184","MEAN_MOTION":15.30183365,"ECCENTRICITY":0.0001288,"INCLINATION":53.1577,"RA_OF_ASC_NODE":143.8151,"ARG_OF_PERICENTER":102.7718,"MEAN_ANOMALY":257.3427,"EPHEMERIS_TYPE":0,"CLASSIFICATION_TYPE":"U","NORAD_CAT_ID":63436,"ELEMENT_SET_NO":999,"REV_AT_EPOCH":5336,"BSTAR":0.00077282913,"MEAN_MOTION_DOT":0.00022588,"MEAN_MOTION_DDOT":0}]
